{"type":"FeatureCollection","features":[{"type":"Feature","geometry":{"type":"Polygon","coordinates":[[[-157.76005,21.42773],[-157.76057,21.42758],[-157.76105,21.42858],[-157.76119,21.42844],[-157.7617,21.42842],[-157.763,21.42857],[-157.76389,21.42817],[-157.76425,21.42764],[-157.76414,21.4274],[-157.76447,21.42647],[-157.76436,21.42595],[-157.76532,21.42523],[-157.76552,21.42441],[-157.76539,21.4237],[-157.76512,21.42339],[-157.76498,21.42351],[-157.76474,21.42335],[-157.76491,21.42319],[-157.7643,21.42198],[-157.76425,21.4214],[-157.76489,21.42076],[-157.76523,21.41935],[-157.76561,21.41908],[-157.76633,21.41912],[-157.7666,21.41897],[-157.76633,21.41738],[-157.76648,21.41611],[-157.76706,21.41632],[-157.76667,21.4158],[-157.7669,21.41561],[-157.76761,21.41621],[-157.76853,21.416],[-157.769,21.41513],[-157.76903,21.41453],[-157.76935,21.41425],[-157.76993,21.4142],[-157.77148,21.41468],[-157.77179,21.41409],[-157.77177,21.41304],[-157.77214,21.41273],[-157.77189,21.4117],[-157.77245,21.41268],[-157.77267,21.41259],[-157.77268,21.4123],[-157.77304,21.41228],[-157.77311,21.4119],[-157.77291,21.41137],[-157.77326,21.41202],[-157.77303,21.41251],[-157.77386,21.41301],[-157.77437,21.41303],[-157.7758,21.41259],[-157.77627,21.41233],[-157.77643,21.41198],[-157.77684,21.41183],[-157.77979,21.41169],[-157.7802,21.41203],[-157.78063,21.41188],[-157.78131,21.41118],[-157.78279,21.41166],[-157.78325,21.41192],[-157.78339,21.41223],[-157.78432,21.41244],[-157.78631,21.41333],[-157.78733,21.41434],[-157.78716,21.41525],[-157.78741,21.41583],[-157.78754,21.41714],[-157.78785,21.41776],[-157.7886,21.418],[-157.78958,21.41762],[-157.79046,21.41799],[-157.791,21.41791],[-157.79122,21.41805],[-157.79146,21.4188],[-157.79075,21.41905],[-157.79036,21.41822],[-157.79026,21.41826],[-157.79067,21.41913],[-157.79018,21.41933],[-157.79058,21.41946],[-157.79065,21.42001],[-157.7898,21.42042],[-157.78955,21.42028],[-157.78944,21.42101],[-157.78877,21.4215],[-157.78885,21.42236],[-157.78853,21.42269],[-157.78826,21.42246],[-157.78828,21.42294],[-157.78851,21.42417],[-157.78907,21.4247],[-157.78964,21.42473],[-157.79163,21.42419],[-157.7917,21.42443],[-157.79148,21.42469],[-157.79181,21.4253],[-157.7916,21.42625],[-157.79165,21.4268],[-157.79134,21.42769],[-157.79166,21.42841],[-157.79265,21.42877],[-157.79265,21.42806],[-157.79381,21.42824],[-157.79414,21.42809],[-157.79392,21.42699],[-157.79413,21.42567],[-157.79547,21.42429],[-157.79698,21.42372],[-157.79784,21.42302],[-157.79964,21.42314],[-157.80054,21.42281],[-157.80197,21.42276],[-157.80376,21.42239],[-157.80777,21.42009],[-157.81114,21.41771],[-157.81324,21.41716],[-157.8149,21.41604],[-157.8162,21.41466],[-157.81647,21.41414],[-157.81672,21.41297],[-157.81704,21.41248],[-157.81827,21.41142],[-157.81878,21.41118],[-157.82025,21.41055],[-157.82129,21.41058],[-157.82162,21.41043],[-157.82177,21.40916],[-157.82217,21.40901],[-157.82263,21.40849],[-157.81994,21.40499],[-157.81854,21.40449],[-157.8172,21.40364],[-157.8147,21.40133],[-157.81375,21.40014],[-157.81312,21.39876],[-157.81289,21.39737],[-157.8132,21.39179],[-157.81289,21.39196],[-157.81259,21.39147],[-157.81221,21.39163],[-157.81181,21.3914],[-157.81131,21.39164],[-157.81059,21.39153],[-157.80966,21.3918],[-157.80919,21.39173],[-157.80849,21.39223],[-157.80806,21.39223],[-157.80743,21.39251],[-157.80705,21.39304],[-157.80705,21.39345],[-157.80658,21.39354],[-157.80565,21.39303],[-157.80502,21.39331],[-157.80482,21.393],[-157.80444,21.39305],[-157.80416,21.39274],[-157.80455,21.3925],[-157.80459,21.39212],[-157.80475,21.39208],[-157.80379,21.39106],[-157.80364,21.39027],[-157.80387,21.38918],[-157.80322,21.38902],[-157.8025,21.38856],[-157.80315,21.38737],[-157.80304,21.38716],[-157.80205,21.387],[-157.80193,21.38656],[-157.79957,21.38642],[-157.79912,21.38577],[-157.79672,21.38614],[-157.79648,21.38637],[-157.79362,21.38654],[-157.79252,21.38598],[-157.79052,21.38458],[-157.78862,21.38497],[-157.78446,21.38485],[-157.78245,21.38525],[-157.78054,21.38608],[-157.77656,21.38864],[-157.77528,21.38972],[-157.77448,21.39066],[-157.77341,21.39268],[-157.77246,21.39664],[-157.77184,21.39813],[-157.76492,21.40784],[-157.76396,21.40948],[-157.76327,21.41112],[-157.76285,21.41271],[-157.76174,21.42147],[-157.76022,21.42662],[-157.76005,21.42773]]]},"properties":{"name20":"Kaneohe","geoid20":"1528250","pop20":37430,"aland20":16945093,"awater20":4967943}},{"type":"Feature","geometry":{"type":"MultiPolygon","coordinates":[[[[-157.82545,21.39204],[-157.82475,21.39364],[-157.82425,21.39434],[-157.82405,21.39514],[-157.82495,21.39564],[-157.82675,21.39584],[-157.82845,21.39624],[-157.82925,21.39694],[-157.82985,21.39844],[-157.83345,21.39974],[-157.83572,21.40031],[-157.8389,21.402],[-157.8389,21.40139],[-157.84148,21.40125],[-157.84218,21.40033],[-157.84506,21.40008],[-157.84655,21.39935],[-157.84904,21.39861],[-157.85232,21.39695],[-157.8543,21.39399],[-157.85479,21.39378],[-157.85518,21.39174],[-157.85667,21.39182],[-157.85777,21.39069],[-157.85816,21.38988],[-157.86015,21.38944],[-157.86194,21.388],[-157.86671,21.38652],[-157.87386,21.38137],[-157.87495,21.38005],[-157.87605,21.37985],[-157.89992,21.36992],[-157.90122,21.36993],[-157.90205,21.36974],[-157.90341,21.36986],[-157.90416,21.36958],[-157.90562,21.36996],[-157.90628,21.36991],[-157.90783,21.36897],[-157.90808,21.36839],[-157.90699,21.36831],[-157.906,21.368],[-157.90523,21.36749],[-157.90433,21.36647],[-157.90579,21.36532],[-157.90817,21.3653],[-157.90955,21.36483],[-157.91087,21.36463],[-157.91395,21.36495],[-157.91396,21.36511],[-157.91428,21.36514],[-157.91671,21.36478],[-157.91902,21.3641],[-157.92104,21.36204],[-157.92106,21.36167],[-157.9216,21.36059],[-157.92273,21.35888],[-157.9235,21.35869],[-157.92376,21.35833],[-157.92632,21.35641],[-157.92646,21.35688],[-157.92712,21.35564],[-157.92804,21.35464],[-157.93025,21.35342],[-157.93123,21.35249],[-157.93178,21.35173],[-157.93274,21.35222],[-157.93341,21.34895],[-157.93362,21.34703],[-157.93428,21.348],[-157.93459,21.34913],[-157.93537,21.34899],[-157.93533,21.34862],[-157.93545,21.34849],[-157.93877,21.34558],[-157.94061,21.3446],[-157.93789,21.34363],[-157.93429,21.34173],[-157.93225,21.34114],[-157.92986,21.33982],[-157.92661,21.33877],[-157.92696,21.33665],[-157.92715,21.33675],[-157.92758,21.33474],[-157.92897,21.33487],[-157.92925,21.33272],[-157.9303,21.33252],[-157.93041,21.32726],[-157.92962,21.32716],[-157.92968,21.32276],[-157.92936,21.32276],[-157.92936,21.32251],[-157.9288,21.32162],[-157.92856,21.32175],[-157.92857,21.32274],[-157.92375,21.32265],[-157.92345,21.32147],[-157.92693,21.31918],[-157.92658,21.31874],[-157.92851,21.31716],[-157.92864,21.3157],[-157.92973,21.31373],[-157.92973,21.3131],[-157.92953,21.31256],[-157.92963,21.31213],[-157.93027,21.31276],[-157.93104,21.31318],[-157.93264,21.31368],[-157.93477,21.31402],[-157.93567,21.31434],[-157.93741,21.31556],[-157.93942,21.31571],[-157.93976,21.31518],[-157.94031,21.31559],[-157.94168,21.31569],[-157.94306,21.316],[-157.94594,21.3162],[-157.94788,21.31664],[-157.94694,21.30862],[-157.95114,21.30865],[-157.95127,21.30444],[-157.90675,21.30263],[-157.90671,21.30426],[-157.90635,21.30464],[-157.90619,21.30514],[-157.90617,21.30671],[-157.90621,21.30891],[-157.90686,21.30989],[-157.9081,21.31045],[-157.91841,21.31057],[-157.919,21.31083],[-157.91955,21.31146],[-157.91967,21.31188],[-157.91961,21.31266],[-157.91918,21.31323],[-157.91387,21.31678],[-157.91192,21.31841],[-157.91079,21.31907],[-157.9095,21.32012],[-157.90797,21.32104],[-157.90305,21.32457],[-157.9022,21.325],[-157.89999,21.32664],[-157.89933,21.32736],[-157.89892,21.32756],[-157.8989,21.32817],[-157.89921,21.32879],[-157.89961,21.32917],[-157.89956,21.32967],[-157.89929,21.32989],[-157.89901,21.32998],[-157.89871,21.32984],[-157.89827,21.32914],[-157.89777,21.32906],[-157.89753,21.3292],[-157.89733,21.32969],[-157.89623,21.33049],[-157.89569,21.33066],[-157.89435,21.33062],[-157.89393,21.33087],[-157.89355,21.3313],[-157.8935,21.33171],[-157.89395,21.33346],[-157.8932,21.33329],[-157.89287,21.33128],[-157.8926,21.33092],[-157.89185,21.33067],[-157.89131,21.33068],[-157.89109,21.33044],[-157.89138,21.3301],[-157.89146,21.32937],[-157.89278,21.32818],[-157.89283,21.32795],[-157.89311,21.32791],[-157.89339,21.32737],[-157.89336,21.32679],[-157.89309,21.32678],[-157.89326,21.32651],[-157.89438,21.32608],[-157.89505,21.32541],[-157.89342,21.32248],[-157.89353,21.32244],[-157.89249,21.32033],[-157.89138,21.32056],[-157.89129,21.32033],[-157.89142,21.32002],[-157.89238,21.31959],[-157.8911,21.31679],[-157.89134,21.31666],[-157.89082,21.3155],[-157.89108,21.3154],[-157.89099,21.31524],[-157.89114,21.31518],[-157.8908,21.31448],[-157.89003,21.31483],[-157.88834,21.31507],[-157.88793,21.31442],[-157.88828,21.3151],[-157.88663,21.31575],[-157.88656,21.31562],[-157.88626,21.31576],[-157.88614,21.3172],[-157.8857,21.31713],[-157.8856,21.31611],[-157.88491,21.3162],[-157.88332,21.31681],[-157.88326,21.31713],[-157.8829,21.31699],[-157.88269,21.31995],[-157.88199,21.31987],[-157.88225,21.31714],[-157.88155,21.3171],[-157.88123,21.31984],[-157.88046,21.31975],[-157.88073,21.31691],[-157.88051,21.31679],[-157.87912,21.31923],[-157.87895,21.31916],[-157.87877,21.31951],[-157.87754,21.32013],[-157.87723,21.31991],[-157.87837,21.31871],[-157.87957,21.31665],[-157.87865,21.3162],[-157.87796,21.31739],[-157.87728,21.31706],[-157.87784,21.31599],[-157.87768,21.31592],[-157.87692,21.31736],[-157.87626,21.31699],[-157.87806,21.31387],[-157.87376,21.31108],[-157.87367,21.31119],[-157.87335,21.311],[-157.8734,21.31087],[-157.87267,21.31035],[-157.87018,21.30876],[-157.87009,21.30886],[-157.86966,21.30855],[-157.86954,21.30897],[-157.87127,21.31011],[-157.87162,21.31063],[-157.87143,21.31091],[-157.86963,21.30982],[-157.87014,21.31071],[-157.87065,21.31225],[-157.86999,21.31246],[-157.8691,21.31008],[-157.86879,21.31004],[-157.8676,21.31042],[-157.86703,21.31403],[-157.86607,21.31393],[-157.86563,21.31354],[-157.86539,21.31296],[-157.86533,21.31219],[-157.86544,21.31219],[-157.86562,21.31098],[-157.86503,21.31103],[-157.8649,21.31065],[-157.86562,21.3104],[-157.86554,21.30997],[-157.86468,21.31025],[-157.86448,21.3097],[-157.86483,21.30954],[-157.86441,21.30917],[-157.86481,21.30867],[-157.86653,21.30725],[-157.86629,21.30559],[-157.8648,21.30641],[-157.86446,21.30588],[-157.86553,21.30538],[-157.86541,21.30514],[-157.86435,21.30568],[-157.86406,21.30523],[-157.8648,21.30478],[-157.8647,21.30466],[-157.86501,21.30439],[-157.86504,21.30413],[-157.86488,21.30385],[-157.86368,21.3039],[-157.86364,21.30345],[-157.86454,21.30336],[-157.86417,21.30312],[-157.86772,21.29899],[-157.8692,21.29627],[-157.86907,21.29621],[-157.86913,21.29599],[-157.8693,21.29571],[-157.86967,21.29566],[-157.86978,21.29548],[-157.86836,21.29557],[-157.8673,21.29511],[-157.86663,21.29455],[-157.86662,21.29436],[-157.86643,21.29436],[-157.8648,21.29309],[-157.86492,21.29281],[-157.86465,21.29297],[-157.86115,21.29032],[-157.8603,21.29145],[-157.86001,21.29155],[-157.85993,21.29184],[-157.86023,21.29197],[-157.86005,21.29236],[-157.85969,21.29221],[-157.85955,21.29255],[-157.85942,21.29253],[-157.8592,21.29318],[-157.85946,21.29327],[-157.8594,21.29338],[-157.8588,21.29316],[-157.85738,21.29443],[-157.85502,21.2932],[-157.8558,21.29174],[-157.85565,21.29165],[-157.85603,21.29113],[-157.85807,21.2922],[-157.85853,21.29193],[-157.85941,21.29083],[-157.85921,21.29099],[-157.85592,21.29081],[-157.85546,21.29124],[-157.85512,21.2912],[-157.85255,21.28987],[-157.84933,21.28919],[-157.84698,21.28815],[-157.84634,21.28738],[-157.84638,21.28669],[-157.8467,21.2861],[-157.84722,21.28603],[-157.84827,21.28474],[-157.84835,21.28416],[-157.84807,21.28353],[-157.84796,21.28381],[-157.84772,21.28389],[-157.8472,21.28378],[-157.84622,21.28302],[-157.84603,21.28263],[-157.84612,21.28196],[-157.846,21.28168],[-157.84426,21.28786],[-157.84319,21.28754],[-157.84274,21.28758],[-157.84133,21.28824],[-157.84101,21.28783],[-157.84035,21.28795],[-157.84027,21.28757],[-157.84121,21.28727],[-157.84098,21.28694],[-157.84119,21.28682],[-157.83983,21.28506],[-157.83988,21.28488],[-157.83928,21.28392],[-157.83942,21.28356],[-157.83952,21.2835],[-157.84019,21.28436],[-157.84094,21.28385],[-157.84282,21.28637],[-157.8431,21.28618],[-157.84047,21.28274],[-157.84117,21.28238],[-157.84352,21.2855],[-157.84384,21.28529],[-157.84363,21.28502],[-157.84351,21.2851],[-157.84095,21.28163],[-157.84029,21.28095],[-157.83928,21.28144],[-157.8388,21.28155],[-157.8383,21.2814],[-157.83749,21.28058],[-157.83646,21.28009],[-157.8352,21.27865],[-157.83348,21.27762],[-157.82972,21.27662],[-157.82973,21.27629],[-157.82915,21.27645],[-157.82795,21.27644],[-157.82648,21.27574],[-157.82532,21.27489],[-157.82525,21.27459],[-157.8246,21.27441],[-157.82412,21.27301],[-157.82327,21.27199],[-157.82315,21.27138],[-157.82328,21.27125],[-157.82289,21.26918],[-157.82304,21.26834],[-157.82204,21.2651],[-157.82276,21.26497],[-157.82251,21.2639],[-157.82216,21.26396],[-157.82181,21.26308],[-157.82142,21.26113],[-157.82041,21.26065],[-157.82006,21.26025],[-157.8185,21.25763],[-157.81729,21.25751],[-157.81626,21.25675],[-157.8149,21.25611],[-157.81286,21.25584],[-157.81124,21.25596],[-157.81002,21.25539],[-157.80819,21.25494],[-157.80616,21.25505],[-157.80395,21.25581],[-157.8032,21.25598],[-157.8017,21.25596],[-157.79816,21.25703],[-157.79718,21.25695],[-157.79611,21.25735],[-157.79588,21.25716],[-157.79585,21.25675],[-157.79535,21.25669],[-157.79483,21.25639],[-157.79426,21.25578],[-157.79295,21.25527],[-157.79188,21.25538],[-157.79151,21.25521],[-157.79086,21.25599],[-157.79073,21.25676],[-157.79072,21.2575],[-157.79114,21.25791],[-157.79104,21.25884],[-157.79047,21.25912],[-157.78992,21.25981],[-157.78421,21.26245],[-157.78105,21.26435],[-157.77994,21.26525],[-157.77779,21.26834],[-157.777,21.26918],[-157.77829,21.27052],[-157.77872,21.27163],[-157.77964,21.27213],[-157.78024,21.27273],[-157.7806,21.27359],[-157.78039,21.27426],[-157.78046,21.27471],[-157.78157,21.27597],[-157.78089,21.27715],[-157.78087,21.27795],[-157.7826,21.27811],[-157.78302,21.2787],[-157.78374,21.28297],[-157.78364,21.28464],[-157.78306,21.28574],[-157.78266,21.28725],[-157.78247,21.28939],[-157.78169,21.29305],[-157.78216,21.2939],[-157.78208,21.29433],[-157.78172,21.29472],[-157.78197,21.29544],[-157.78169,21.29577],[-157.78154,21.29747],[-157.78123,21.29842],[-157.78129,21.29902],[-157.78068,21.29967],[-157.78069,21.30085],[-157.77972,21.30152],[-157.77951,21.30215],[-157.77902,21.3026],[-157.77785,21.30306],[-157.77695,21.30429],[-157.77589,21.30446],[-157.77512,21.30496],[-157.77402,21.3052],[-157.77324,21.30576],[-157.77228,21.306],[-157.77081,21.30765],[-157.76964,21.3095],[-157.76948,21.31042],[-157.76963,21.31151],[-157.7692,21.31213],[-157.76927,21.31277],[-157.7691,21.31379],[-157.76881,21.31425],[-157.76881,21.31482],[-157.76839,21.31566],[-157.76684,21.31818],[-157.76573,21.31913],[-157.76429,21.3212],[-157.76413,21.32193],[-157.76322,21.32396],[-157.76228,21.32476],[-157.76147,21.32511],[-157.7608,21.32645],[-157.7606,21.32746],[-157.75922,21.32982],[-157.75918,21.33052],[-157.7581,21.3313],[-157.75891,21.33186],[-157.75939,21.33169],[-157.76265,21.33175],[-157.76385,21.33215],[-157.76815,21.33225],[-157.77155,21.33315],[-157.77295,21.33415],[-157.77555,21.33565],[-157.77745,21.33565],[-157.77915,21.33585],[-157.78075,21.33625],[-157.78225,21.33715],[-157.78265,21.33765],[-157.78385,21.33855],[-157.78465,21.33895],[-157.78515,21.33975],[-157.78715,21.34115],[-157.78805,21.34304],[-157.78805,21.34454],[-157.78864,21.34774],[-157.7886,21.34873],[-157.78918,21.35003],[-157.78898,21.35162],[-157.78907,21.35321],[-157.78829,21.35517],[-157.78849,21.35878],[-157.78938,21.36211],[-157.7906,21.36406],[-157.79167,21.36503],[-157.79421,21.36647],[-157.79741,21.36729],[-157.80732,21.36804],[-157.80796,21.36888],[-157.80965,21.36934],[-157.81037,21.37037],[-157.8103,21.37251],[-157.81073,21.37435],[-157.81075,21.37557],[-157.81279,21.37753],[-157.81362,21.37866],[-157.81529,21.37992],[-157.81863,21.38195],[-157.82199,21.38329],[-157.82267,21.38426],[-157.82355,21.38504],[-157.82415,21.38704],[-157.82515,21.38844],[-157.82455,21.38994],[-157.82495,21.39044],[-157.82505,21.39114],[-157.82545,21.39204]],[[-157.93201,21.31342],[-157.93105,21.31316],[-157.92974,21.31229],[-157.92947,21.31109],[-157.92898,21.31028],[-157.94519,21.31018],[-157.94594,21.31618],[-157.94306,21.31598],[-157.94168,21.31568],[-157.94032,21.31558],[-157.93977,21.31517],[-157.93943,21.31569],[-157.93741,21.31555],[-157.93567,21.31433],[-157.93201,21.31342]]],[[[-157.89123,21.30698],[-157.89108,21.30755],[-157.89141,21.30845],[-157.89178,21.30915],[-157.89224,21.30929],[-157.89298,21.30798],[-157.8927,21.30757],[-157.89139,21.30691],[-157.89123,21.30698]]],[[[-157.87316,21.3085],[-157.88016,21.31321],[-157.88604,21.31415],[-157.88609,21.31394],[-157.88781,21.31354],[-157.88917,21.31287],[-157.88948,21.31247],[-157.88948,21.31189],[-157.88859,21.30984],[-157.88792,21.30913],[-157.8878,21.30847],[-157.88716,21.30769],[-157.88669,21.30665],[-157.8862,21.3061],[-157.88603,21.305],[-157.88505,21.30363],[-157.88442,21.30201],[-157.88398,21.30148],[-157.88394,21.30113],[-157.88418,21.30076],[-157.88399,21.29989],[-157.88367,21.30025],[-157.88251,21.30027],[-157.882,21.30061],[-157.88097,21.30079],[-157.88016,21.30114],[-157.8793,21.30097],[-157.87601,21.30091],[-157.8732,21.2997],[-157.87252,21.29962],[-157.87229,21.2993],[-157.8709,21.29869],[-157.86963,21.30029],[-157.86929,21.30138],[-157.86934,21.30212],[-157.87037,21.30367],[-157.87192,21.30656],[-157.87391,21.30777],[-157.87373,21.30816],[-157.87349,21.30802],[-157.87316,21.3085]]]]},"properties":{"name20":"Urban Honolulu","geoid20":"1571550","pop20":350964,"aland20":156806994,"awater20":20487477}},{"type":"Feature","geometry":{"type":"Polygon","coordinates":[[[-157.71147,21.34624],[-157.71099,21.34722],[-157.7121,21.34768],[-157.71482,21.34807],[-157.71568,21.3486],[-157.71571,21.34898],[-157.71753,21.34994],[-157.71976,21.34949],[-157.721,21.34903],[-157.72142,21.34918],[-157.72272,21.35046],[-157.72245,21.35524],[-157.72155,21.35684],[-157.7217,21.35746],[-157.72231,21.35748],[-157.72221,21.35771],[-157.72406,21.35973],[-157.72477,21.35868],[-157.72579,21.35866],[-157.72871,21.3571],[-157.72974,21.35472],[-157.73281,21.35791],[-157.73315,21.35773],[-157.73343,21.35785],[-157.73352,21.35834],[-157.73462,21.35954],[-157.73492,21.35964],[-157.73633,21.35909],[-157.73671,21.35919],[-157.7372,21.35903],[-157.73736,21.35873],[-157.73749,21.35741],[-157.7381,21.35737],[-157.7384,21.3571],[-157.73994,21.35713],[-157.74145,21.35773],[-157.74217,21.35699],[-157.74328,21.35651],[-157.74377,21.35603],[-157.74432,21.35593],[-157.74522,21.35543],[-157.74568,21.35539],[-157.74574,21.35377],[-157.74659,21.35235],[-157.74742,21.34971],[-157.75019,21.34468],[-157.75082,21.34398],[-157.75272,21.33804],[-157.73897,21.3289],[-157.72952,21.32809],[-157.72116,21.33194],[-157.72059,21.33161],[-157.72005,21.33161],[-157.71915,21.3312],[-157.71862,21.33075],[-157.71761,21.32943],[-157.7171,21.32924],[-157.71618,21.32918],[-157.71605,21.32888],[-157.71793,21.32708],[-157.71742,21.32415],[-157.71475,21.32194],[-157.71504,21.3234],[-157.71472,21.32547],[-157.71384,21.32621],[-157.71335,21.32722],[-157.71361,21.3277],[-157.71321,21.32802],[-157.71326,21.32827],[-157.71308,21.32861],[-157.71277,21.32876],[-157.71289,21.32907],[-157.71257,21.32929],[-157.71268,21.32973],[-157.71223,21.33004],[-157.71239,21.33034],[-157.71205,21.3308],[-157.71211,21.33161],[-157.71198,21.33211],[-157.71158,21.33227],[-157.71134,21.33273],[-157.70929,21.33282],[-157.70847,21.33261],[-157.70779,21.33269],[-157.70763,21.33295],[-157.70771,21.33493],[-157.70874,21.33669],[-157.70827,21.33948],[-157.70877,21.34014],[-157.70908,21.34093],[-157.70911,21.34182],[-157.71118,21.34497],[-157.71147,21.34624]]]},"properties":{"name20":"Waimanalo","geoid20":"1578050","pop20":6057,"aland20":11287821,"awater20":0}}]}