{"type":"FeatureCollection","features":[{"type":"Feature","properties":{"geo_unit_id":"geo_nwhi","geo_unit_name":"Northwestern Hawaiian Islands","geo_unit_type":"region","kind":"region"},"geometry":{"type":"MultiPolygon","coordinates":[[[[-172.1827,29.1046],[-171.5055,29.1225],[-170.8216,29.0295],[-170.1644,28.8238],[-169.7466,28.7552],[-169.3485,28.6472],[-168.9504,28.4926],[-168.5835,28.302],[-168.1634,28.3401],[-167.7362,28.3349],[-167.3247,28.2878],[-166.904,28.1948],[-166.3788,28.0086],[-165.8938,27.7534],[-165.4592,27.4352],[-165.0773,27.0523],[-164.707,26.9227],[-164.2186,26.8938],[-163.7444,26.8074],[-163.3565,26.6906],[-163.0,26.542],[-163.0,24.1141],[-161.7424,23.8804],[-161.4759,23.7889],[-161.2934,23.6634],[-161.1509,23.4999],[-161.0572,23.3088],[-161.0173,23.0496],[-161.0492,22.842],[-161.1652,22.6033],[-161.3544,22.4093],[-161.5985,22.2789],[-161.9864,22.2256],[-163.0,22.4073],[-163.0,19.2346],[-163.4133,19.6753],[-163.7384,20.1719],[-163.9559,20.301],[-164.6766,20.2291],[-165.1196,20.252],[-165.548,20.3237],[-166.3082,20.2857],[-166.8104,20.3432],[-167.3128,20.4673],[-167.7894,20.6527],[-168.2329,20.8992],[-168.7757,21.3307],[-169.217,21.8474],[-169.618,22.0046],[-170.0065,22.211],[-170.5873,22.1619],[-171.16,22.1975],[-171.5991,22.2828],[-172.04,22.4232],[-172.7108,22.5328],[-173.3456,22.7535],[-173.8606,22.7005],[-174.3644,22.7134],[-174.8794,22.7937],[-175.3606,22.9343],[-175.9882,23.2283],[-176.5455,23.627],[-177.0123,24.1161],[-177.3625,24.6621],[-177.8369,24.8719],[-179.3043,25.1571],[-180.0,25.3897],[-180.0,31.4683],[-179.5299,31.6318],[-179.046,31.7393],[-178.5575,31.7918],[-178.0503,31.7894],[-177.6044,31.7389],[-177.05,31.6098],[-176.4722,31.5298],[-175.7278,31.3037],[-175.116,31.2536],[-174.524,31.1212],[-174.1232,30.9781],[-173.7483,30.7991],[-173.3931,30.5805],[-173.0787,30.3372],[-172.7946,30.0625],[-172.5479,29.7612],[-172.3434,29.4404],[-172.1827,29.1046]]],[[[-180.0,31.4682],[-180.0002,25.3898],[-180.4628,25.6308],[-180.8876,25.931],[-181.2596,26.2796],[-181.5645,26.6584],[-181.8183,27.0825],[-182.006,27.5365],[-182.1196,28.0101],[-182.1558,28.4763],[-182.1177,28.9483],[-182.0051,29.4094],[-181.8202,29.8484],[-181.5709,30.2532],[-181.2595,30.6239],[-180.8831,30.9595],[-180.4696,31.236],[-180.0,31.4682]]]]}}]}